start=new Date('2021-08-26T00:00:00.000Z').valueOf();
sats=[{"EPOCH":"2021-08-25T22:00:00.999936","CLASSIFICATION_TYPE":"U","TLE_LINE1":"1 48880U 21059B   21237.91667824 -.00033022  00000-0 -17211-2 0  9999","MEAN_ANOMALY":"11.0825","LAUNCH_DATE":"2021-06-30","RCS_SIZE":"LARGE","ARG_OF_PERICENTER":"95.5669","GP_ID":"183447474","INCLINATION":"97.5184","ELEMENT_SET_NO":"999","MEAN_MOTION":"15.16003626","APOAPSIS":"526.806","OBJECT_TYPE":"PAYLOAD","MEAN_ELEMENT_THEORY":"SGP4","TIME_SYSTEM":"UTC","TLE_LINE2":"2 48880  97.5184   6.1227 0012864  95.5669  11.0825 15.16003626  3609","SITE":"AFETR","MEAN_MOTION_DDOT":"0.0000000000000","ECCENTRICITY":"0.00128640","BSTAR":"-0.00172110000000","PERIAPSIS":"509.064","SEMIMAJOR_AXIS":"6896.070","DECAY_DATE":null,"EPHEMERIS_TYPE":"0","CENTER_NAME":"EARTH","OBJECT_NAME":"STARLINK-3004","FILE":"3103208","PERIOD":"94.987","NORAD_CAT_ID":"48880","COUNTRY_CODE":"US","MEAN_MOTION_DOT":"-0.00033022","OBJECT_ID":"2021-059B","REV_AT_EPOCH":"360","REF_FRAME":"TEME","RA_OF_ASC_NODE":"6.1227"},{"BSTAR":"-0.00173470000000","MEAN_MOTION_DDOT":"0.0000000000000","ECCENTRICITY":"0.00052560","EPHEMERIS_TYPE":"0","SEMIMAJOR_AXIS":"6896.101","DECAY_DATE":null,"PERIAPSIS":"514.341","NORAD_CAT_ID":"48881","MEAN_MOTION_DOT":"-0.00033211","COUNTRY_CODE":"US","OBJECT_NAME":"STARLINK-3005","CENTER_NAME":"EARTH","PERIOD":"94.987","FILE":"3103208","RA_OF_ASC_NODE":"6.1332","REV_AT_EPOCH":"360","REF_FRAME":"TEME","OBJECT_ID":"2021-059C","CLASSIFICATION_TYPE":"U","EPOCH":"2021-08-25T22:00:00.999936","LAUNCH_DATE":"2021-06-30","MEAN_ANOMALY":"347.6676","TLE_LINE1":"1 48881U 21059C   21237.91667824 -.00033211  00000-0 -17347-2 0  9990","GP_ID":"183448027","INCLINATION":"97.5192","ELEMENT_SET_NO":"999","RCS_SIZE":"LARGE","ARG_OF_PERICENTER":"134.8537","TLE_LINE2":"2 48881  97.5192   6.1332 0005256 134.8537 347.6676 15.15993595  3608","SITE":"AFETR","MEAN_ELEMENT_THEORY":"SGP4","TIME_SYSTEM":"UTC","MEAN_MOTION":"15.15993595","APOAPSIS":"521.590","OBJECT_TYPE":"PAYLOAD"}];
